ASTRA 1KR               
1 29055U 06012A   21139.49326764  .00000125  00000-0  00000+0 0  9994
2 29055   0.0407 275.2339 0000439 134.2981  24.6450  1.00268352 55142
EWS-G1 (GOES 13)        
1 29155U 06018A   21139.50172951  .00000040  00000-0  00000-0 0  9997
2 29155   0.1838 269.1575 0002611 277.8751 292.7120  1.00275418 24777
EUTELSAT 113 WEST A     
1 29162U 06020A   21139.56680428 -.00000031  00000-0  00000-0 0  9998
2 29162   0.0206 258.6588 0002829 160.0821 269.7489  1.00269348 54884
GALAXY 16 (G-16)        
1 29236U 06023A   21139.57840565 -.00000121  00000-0  00000-0 0  9994
2 29236   0.0369 110.5797 0002705 310.0553 286.0521  1.00271976 54379
EUTELSAT HOT BIRD 13B   
1 29270U 06032A   21139.27675258  .00000092  00000-0  00000-0 0  9990
2 29270   0.0679 353.5502 0004505  47.6607 308.5993  1.00269806 28707
JCSAT-3A                
1 29272U 06033A   21139.51498937 -.00000339  00000-0  00000-0 0  9992
2 29272   0.0451 111.6657 0002379 321.7641 117.3751  1.00270315 29157
SYRACUSE 3B             
1 29273U 06033B   21139.34488385 -.00000038  00000-0  00000-0 0  9996
2 29273   0.0160 293.0676 0005153 132.8745 290.2591  1.00272967 54101
KOREASAT 5 (MUGUNGWHA 5)
1 29349U 06034A   21139.51202334 -.00000353  00000-0  00000-0 0  9998
2 29349   0.0035 326.2364 0001941 133.9290  74.6284  1.00270534 22721
DIRECTV 9S              
1 29494U 06043A   21139.57719387 -.00000107  00000-0  00000-0 0  9993
2 29494   0.0163 211.6214 0002914 200.9852 291.4533  1.00271921 32789
OPTUS D1                
1 29495U 06043B   21139.54570878 -.00000105  00000-0  00000-0 0  9999
2 29495   0.0215  55.6694 0003441 358.9000 179.3241  1.00271461 53525
XM-4 (BLUES)            
1 29520U 06049A   21139.17340868 -.00000017  00000-0  00000-0 0  9999
2 29520   0.0140 352.0926 0000077  52.8049 139.3713  1.00271732 32874
BADR-4                  
1 29526U 06051A   21139.49466340  .00000150  00000-0  00000-0 0  9994
2 29526   0.0481 332.2015 0003547  57.3983  51.8516  1.00270987 32688
WILDBLUE-1              
1 29643U 06054A   21139.56875190 -.00000043  00000-0  00000-0 0  9994
2 29643   0.0136 292.6697 0001864 119.3175 279.0239  1.00270125 35191
AMC-18                  
1 29644U 06054B   21139.40114646 -.00000210  00000-0  00000-0 0  9996
2 29644   0.0190  33.1529 0002197  23.1624 242.3972  1.00272505 52960
MEASAT-3                
1 29648U 06056A   21139.50774878 -.00000237  00000-0  00000-0 0  9991
2 29648   0.0529 115.3507 0002509 327.1554  69.2173  1.00272458 31878
INSAT-4B                
1 30793U 07007A   21139.27757684 -.00000182  00000-0  00000-0 0  9990
2 30793   1.2523  93.9121 0002034 251.9120  76.7817  1.00269469 23605
SKYNET 5A               
1 30794U 07007B   21139.50844667 -.00000265  00000-0  00000+0 0  9996
2 30794   1.3733  90.5838 0003910 338.3870  86.6889  1.00271705 52050
ANIK F3                 
1 31102U 07009A   21139.56149084  .00000004  00000-0  00000+0 0  9999
2 31102   0.0177 288.2256 0002026 129.7290 262.9259  1.00273267 51747
ASTRA 1L                
1 31306U 07016A   21139.20621632  .00000126  00000-0  00000-0 0  9994
2 31306   0.0553 306.5283 0002703  65.5596 318.4799  1.00276064 26435
GALAXY 17 (G-17)        
1 31307U 07016B   21139.44771821 -.00000168  00000-0  00000-0 0  9994
2 31307   0.0504  97.9097 0003091 315.6618 253.9425  1.00270534 51209
ZHONGXING-6B            
1 31800U 07031A   21139.56825681 -.00000356  00000-0  00000-0 0  9995
2 31800   0.0198 281.8653 0003492 129.2950 146.3521  1.00267459 50833
DIRECTV 10              
1 31862U 07032A   21139.46588405 -.00000097  00000-0  00000-0 0  9995
2 31862   0.0174  69.4940 0000060 338.5679 254.2229  1.00271506 27011
SPACEWAY 3              
1 32018U 07036A   21138.96806229 -.00000145  00000-0  00000-0 0  9998
2 32018   0.0345 112.5934 0000271 232.4673 145.3644  1.00271806 27955
BSAT-3A                 
1 32019U 07036B   21139.36782691 -.00000345  00000-0  00000-0 0  9992
2 32019   0.0535 239.3031 0000520 302.7690 297.4585  1.00270846 31928
OPTUS D2                
1 32252U 07044A   21139.53857417 -.00000178  00000-0  00000-0 0  9992
2 32252   0.0173 314.3034 0003624 101.0934 167.9171  1.00272356 49975
INTELSAT 11 (IS-11)     
1 32253U 07044B   21139.48088012 -.00000263  00000-0  00000+0 0  9998
2 32253   0.0130 291.0099 0002201 145.9881 290.5035  1.00270558 49939
WGS F1 (USA 195)        
1 32258U 07046A   21139.34706476  .00000047  00000-0  00000-0 0  9991
2 32258   0.0347 106.9048 0000372 276.6779 344.6121  1.00272386 33770
STAR ONE C1             
1 32293U 07056A   21139.47651833 -.00000271  00000-0  00000-0 0  9991
2 32293   0.0523 104.5034 0002754 312.4857 286.9295  1.00272354 33175
SKYNET 5B               
1 32294U 07056B   21139.49448892  .00000148  00000-0  00000-0 0  9995
2 32294   0.5543  88.8426 0003825 325.7350  25.9189  1.00270971 49596
ASTRA 4A (SIRIUS 4)     
1 32299U 07057A   21139.34689028  .00000038  00000-0  00000-0 0  9991
2 32299   0.0471  88.7186 0002601 332.2227 305.9801  1.00271917 33074
HORIZONS 2              
1 32388U 07063B   21139.50635301 -.00000177  00000-0  00000+0 0  9994
2 32388   0.0105   8.6965 0003094  47.5300  88.3022  1.00270539 49284
THURAYA-3               
1 32404U 08001A   21139.50914456 -.00000296  00000-0  00000+0 0  9999
2 32404   3.8399  16.2093 0004944  34.9029 108.0687  1.00269996 48932
EXPRESS-AM33            
1 32478U 08003A   21139.58168258  .00000049  00000-0  00000-0 0  9997
2 32478   0.0746  89.8461 0005451 359.0526  64.6428  0.99992349 35141
THOR 5                  
1 32487U 08006A   21138.69007774 -.00000002  00000-0  00000-0 0  9996
2 32487   0.0132 262.7655 0002321 149.1660  72.3544  1.00273502 48704
AMC-14                  
1 32708U 08011A   21138.92688233  .00000085  00000-0  00000-0 0  9999
2 32708  21.4848  43.1286 0044710   4.9091 180.3761  1.00275676 49555
DIRECTV 11              
1 32729U 08013A   21138.96727716 -.00000120  00000-0  00000-0 0  9999
2 32729   0.0360 105.3200 0000086 325.6941  54.8961  1.00272063 26999
ICO G1                  
1 32763U 08016A   21139.38591093 -.00000165  00000-0  00000+0 0  9992
2 32763   3.7525  19.4510 0001967  46.6201 217.2592  1.00270708 47865
VINASAT-1               
1 32767U 08018A   21139.51577449 -.00000323  00000-0  00000+0 0  9998
2 32767   0.0183  24.7411 0001735  57.5436 112.7490  1.00269322 47992
STAR ONE C2             
1 32768U 08018B   21139.11662503 -.00000259  00000-0  00000-0 0  9990
2 32768   0.0497 116.8163 0003383 350.6472 101.5290  1.00269496 48072
TIANLIAN 1-01           
1 32779U 08019A   21139.43368547 -.00000133  00000-0  00000-0 0  9990
2 32779   4.8590  70.9495 0032053 273.6471 128.8543  1.00271813 47873
AMOS-3                  
1 32794U 08022A   21139.34505833 -.00000030  00000-0  00000-0 0  9998
2 32794   0.0221  76.6956 0002295 318.9014 321.7184  1.00271050 63758
GALAXY 18 (G-18)        
1 32951U 08024A   21139.55787080  .00000031  00000-0  00000-0 0  9994
2 32951   0.0097 328.7544 0003202  94.9828 251.5423  1.00272752 27252
CHINASAT 9 (ZX 9)       
1 33051U 08028A   21139.50783602 -.00000243  00000-0  00000-0 0  9997
2 33051   0.0156 287.1909 0004229 140.5159  84.7263  1.00272854 47442
SKYNET 5C               
1 33055U 08030A   21139.41414462 -.00000134  00000-0  00000-0 0  9998
2 33055   0.0647 357.5527 0003776  72.9270 298.1228  1.00269902 47359
TURKSAT 3A              
1 33056U 08030B   21139.49789112  .00000151  00000-0  00000+0 0  9991
2 33056   0.0570  93.1972 0005236 329.8549  35.5883  1.00274184 47480
INTELSAT 25 (IS-25)     
1 33153U 08034A   21139.48306102 -.00000218  00000-0  00000+0 0  9991
2 33153   0.0168 256.0449 0002941 158.5774 325.1522  1.00270466 47046
BADR-6                  
1 33154U 08034B   21139.27928242  .00000151  00000-0  00000+0 0  9999
2 33154   0.0605  43.9329 0006645  23.6278 296.1730  1.00274807 47152
ECHOSTAR 11             
1 33207U 08035A   21139.36368737 -.00000051  00000-0  00000-0 0  9997
2 33207   0.0364 108.1018 0002435 303.9333 206.1583  1.00272066 32630
SUPERBIRD-C2            
1 33274U 08038A   21139.58341622 -.00000246  00000-0  00000-0 0  9998
2 33274   0.0388 120.2837 0002325 320.9942 150.1640  1.00269432 87137
AMC-21                  
1 33275U 08038B   21138.96213025  .00000042  00000-0  00000-0 0  9998
2 33275   0.0409  84.8725 0002409 330.4042  43.0568  1.00271890 46891
INMARSAT 4-F3           
1 33278U 08039A   21139.46929948 -.00000134  00000-0  00000-0 0  9999
2 33278   3.2015  15.7634 0002770  50.8423 241.6850  1.00271636 27955
NIMIQ 4                 
1 33373U 08044A   21138.97067938 -.00000214  00000-0  00000-0 0  9997
2 33373   0.0039  51.5681 0002457   2.7584  89.9774  1.00270769 46380
GALAXY 19 (G-19)        
1 33376U 08045A   21139.35979559 -.00000133  00000-0  00000+0 0  9994
2 33376   0.0089 323.8195 0003097  97.0746 208.8734  1.00270314 46239
ASTRA 1M                
1 33436U 08057A   21138.77548737  .00000126  00000-0  00000-0 0  9991
2 33436   0.0551 109.2418 0003750 344.1660  81.6492  1.00274457 27139
CIEL-2                  
1 33453U 08063A   21139.55304574  .00000063  00000-0  00000+0 0  9992
2 33453   0.0092 248.1705 0003016 179.6171 239.9055  1.00272325 45543
EUTELSAT HOT BIRD 13C   
1 33459U 08065A   21139.34846052  .00000092  00000-0  00000-0 0  9992
2 33459   0.0463  38.1521 0005650  28.4596 309.0823  1.00269787 28745
EUTELSAT 48D            
1 33460U 08065B   21139.34340083 -.00000094  00000-0  00000-0 0  9990
2 33460   0.4805  97.7286 0003260 312.8067 297.8527  1.00271334 45350
FENGYUN 2E              
1 33463U 08066A   21138.86062961 -.00000192  00000-0  00000-0 0  9995
2 33463   5.0522  67.3183 0003756 339.3648 226.2679  1.00265607 45482
EXPRESS-AM44            
1 33595U 09007A   21138.62598010 -.00000082  00000-0  00000+0 0  9997
2 33595   0.0189 296.6743 0001394 181.1974 333.0147  1.00273188 44953
